[{"OBJECT_NAME":"NEXSAT-1","OBJECT_ID":"2024-024E","EPOCH":"2026-03-09T22:47:24.778176","MEAN_MOTION":15.32166372,"ECCENTRICITY":0.00099795,"INCLINATION":97.3124,"RA_OF_ASC_NODE":144.1918,"ARG_OF_PERICENTER":108.5709,"MEAN_ANOMALY":251.6617,"EPHEMERIS_TYPE":0,"CLASSIFICATION_TYPE":"U","NORAD_CAT_ID":58921,"ELEMENT_SET_NO":999,"REV_AT_EPOCH":11669,"BSTAR":0.00031433612,"MEAN_MOTION_DOT":9.702e-5,"MEAN_MOTION_DDOT":0},{"OBJECT_NAME":"STARLINK-32023","OBJECT_ID":"2024-124Q","EPOCH":"2026-03-09T23:08:43.895616","MEAN_MOTION":15.30183624,"ECCENTRICITY":0.00014184,"INCLINATION":53.1613,"RA_OF_ASC_NODE":321.5139,"ARG_OF_PERICENTER":64.954,"MEAN_ANOMALY":295.1608,"EPHEMERIS_TYPE":0,"CLASSIFICATION_TYPE":"U","NORAD_CAT_ID":60197,"ELEMENT_SET_NO":999,"REV_AT_EPOCH":9433,"BSTAR":8.7317213e-5,"MEAN_MOTION_DOT":2.226e-5,"MEAN_MOTION_DDOT":0}]
